{"fetched_at":"2026-03-30T06:02:59Z","count":15439,"tles":[{"name":"STARLINK-32193","line1":"1 60428U 24144D   26087.81207828  .00001409  00000+0  59703-4 0  9995","line2":"2 60428  53.1600 128.5428 0001011  95.9781 264.1335 15.30192463 92277","category":"Starlink"}]}