{
  "norad_id": 60428,
  "name": "STARLINK-32193",
  "history": [
    {
      "epoch": "2026-03-28T19:29:23.563392Z",
      "apogee_km": 475.9308610070093,
      "perigee_km": 474.5442862632717,
      "latitude_deg": -2.1229427477029376e-06,
      "longitude_deg": 9.967460849076092,
      "height_km": 476.2082063981982,
      "semi_major_axis_km": 6853.37457363514,
      "eccentricity": 0.00010116,
      "inclination_deg": 53.16,
      "raan_deg": 128.5428,
      "arg_perigee_deg": 95.9781,
      "mean_anomaly_deg": 264.1335,
      "mean_motion_rev_day": 15.30192463
    }
  ]
}